NORAD_CAT_ID,OBJECT_NAME,OBJECT_TYPE,EPOCH,MEAN_MOTION,ECCENTRICITY,INCLINATION,RA_OF_ASC_NODE,ARG_OF_PERICENTER,MEAN_ANOMALY,BSTAR,MEAN_MOTION_DOT,MEAN_MOTION_DDOT,TLE_LINE0,TLE_LINE1,TLE_LINE2,SEMIMAJOR_AXIS,PERIOD,APOGEE,PERIGEE,DECAYED
52459.0,STARLINK-3856,PAYLOAD,2023-03-25 16:44:58,15.08815354,0.000154,53.2175,227.394,126.4131,233.7003,0.0011625,0.00018249,0.0,0 STARLINK-3856,1 52459U 22049J   23084.69790159  .00018249  00000-0  11625-2 0  9996,2 52459  53.2175 227.3940 0001540 126.4131 233.7003 15.08815354 49208,6917.956,95.439,540.886,538.755,0.0
52459.0,STARLINK-3856,PAYLOAD,2023-03-26 11:49:37,15.08813955,0.0001245,53.2158,223.8231,121.3287,238.7827,0.00096754,0.00015133,0.0,0 STARLINK-3856,1 52459U 22049J   23085.49280014  .00015133  00000-0  96754-3 0  9995,2 52459  53.2158 223.8231 0001245 121.3287 238.7827 15.08813955 49485,6917.96,95.439,540.686,538.964,0.0
52459.0,STARLINK-3856,PAYLOAD,2023-03-26 16:35:47,15.08809036,0.0001274,53.2155,222.9314,126.9927,233.1182,0.00020906,3.038e-05,0.0,0 STARLINK-3856,1 52459U 22049J   23085.69152336  .00003038  00000-0  20906-3 0  9999,2 52459  53.2155 222.9314 0001274 126.9927 233.1182 15.08809036 49352,6917.975,95.44,540.721,538.959,0.0
52459.0,STARLINK-3856,PAYLOAD,2023-03-27 13:15:48,15.08852158,0.0001158,53.2156,219.0656,115.5104,244.6008,0.0012392,0.00019495,0.0,0 STARLINK-3856,1 52459U 22049J   23086.55264578  .00019495  00000-0  12392-2 0  9990,2 52459  53.2156 219.0656 0001158 115.5104 244.6008 15.08852158 49640,6917.843,95.437,540.509,538.907,0.0
52459.0,STARLINK-3856,PAYLOAD,2023-03-27 14:51:11,15.08858691,0.0001179,53.2154,218.7677,115.4291,244.6823,0.001408,0.00022203,0.0,0 STARLINK-3856,1 52459U 22049J   23086.61888443  .00022203  00000-0  14080-2 0  9997,2 52459  53.2154 218.7677 0001179 115.4291 244.6823 15.08858691 49492,6917.823,95.436,540.504,538.873,0.0
52459.0,STARLINK-3856,PAYLOAD,2023-03-28 01:58:53,15.08854279,0.0001464,53.216,216.6881,92.5323,267.5837,0.00080528,0.00012556,0.0,0 STARLINK-3856,1 52459U 22049J   23087.08256401  .00012556  00000-0  80528-3 0  9993,2 52459  53.2160 216.6881 0001464  92.5323 267.5837 15.08854279 49724,6917.837,95.437,540.715,538.689,0.0
52459.0,STARLINK-3856,PAYLOAD,2023-03-28 13:06:35,15.08848884,0.0001588,53.215,214.6058,88.0285,272.0889,0.00024725,3.65e-05,0.0,0 STARLINK-3856,1 52459U 22049J   23087.54624321  .00003650  00000-0  24725-3 0  9996,2 52459  53.2150 214.6058 0001588  88.0285 272.0889 15.08848884 49634,6917.853,95.437,540.817,538.62,0.0
52459.0,STARLINK-3856,PAYLOAD,2023-03-28 14:41:58,15.0884619,0.0001433,53.2152,214.3087,87.6667,272.4489,0.00026378,3.913e-05,0.0,0 STARLINK-3856,1 52459U 22049J   23087.61248384  .00003913  00000-0  26378-3 0  9993,2 52459  53.2152 214.3087 0001433  87.6667 272.4489 15.08846190 49800,6917.861,95.437,540.718,538.735,0.0
52459.0,STARLINK-3856,PAYLOAD,2023-03-29 12:57:22,15.08843612,0.0001404,53.2165,210.1457,101.7732,258.3418,5.6054e-05,6.04e-06,0.0,0 STARLINK-3856,1 52459U 22049J   23088.53984070  .00000604  00000-0  56054-4 0  9993,2 52459  53.2165 210.1457 0001404 101.7732 258.3418 15.08843612 49786,6917.869,95.437,540.706,538.763,0.0
52459.0,STARLINK-3856,PAYLOAD,2023-03-29 19:18:53,15.08866335,0.0001127,53.2165,208.9552,91.0115,269.1006,0.00029911,4.479e-05,0.0,0 STARLINK-3856,1 52459U 22049J   23088.80478824  .00004479  00000-0  29911-3 0  9993,2 52459  53.2165 208.9552 0001127  91.0115 269.1006 15.08866335 49987,6917.8,95.436,540.445,538.885,0.0
52459.0,STARLINK-3856,PAYLOAD,2023-03-30 11:12:46,15.08838158,0.0001402,53.2159,205.9846,75.5954,284.5194,4.853e-05,4.84e-06,0.0,0 STARLINK-3856,1 52459U 22049J   23089.46720536  .00000484  00000-0  48530-4 0  9997,2 52459  53.2159 205.9846 0001402  75.5954 284.5194 15.08838158 50081,6917.886,95.438,540.721,538.781,0.0
52459.0,STARLINK-3856,PAYLOAD,2023-03-30 14:23:32,15.08846281,0.000151,53.2166,205.3883,92.1247,267.9918,0.00018199,2.61e-05,0.0,0 STARLINK-3856,1 52459U 22049J   23089.59968093  .00002610  00000-0  18199-3 0  9993,2 52459  53.2166 205.3883 0001510  92.1247 267.9918 15.08846281 50102,6917.861,95.437,540.771,538.682,0.0
52459.0,STARLINK-3856,PAYLOAD,2023-03-31 12:38:56,15.0884726,0.0001476,53.2156,201.2237,64.5637,295.5508,0.00027561,4.102e-05,0.0,0 STARLINK-3856,1 52459U 22049J   23090.52704154  .00004102  00000-0  27561-3 0  9995,2 52459  53.2156 201.2237 0001476  64.5637 295.5508 15.08847260 50241,6917.858,95.437,540.744,538.702,0.0
52459.0,STARLINK-3856,PAYLOAD,2023-03-31 23:46:38,15.0883673,0.0001405,53.2164,199.1402,73.4188,286.6958,0.00013433,1.85e-05,0.0,0 STARLINK-3856,1 52459U 22049J   23090.99072396  .00001850  00000-0  13433-3 0  9992,2 52459  53.2164 199.1402 0001405  73.4188 286.6958 15.08836730 50319,6917.89,95.438,540.727,538.783,0.0
52459.0,STARLINK-3856,PAYLOAD,2023-04-01 12:29:44,15.08824684,0.0001222,53.2156,196.765,81.5146,278.5985,-0.00016012,-2.834e-05,0.0,0 STARLINK-3856,1 52459U 22049J   23091.52065333 -.00002834  00000-0 -16012-3 0  9996,2 52459  53.2156 196.7650 0001222  81.5146 278.5985 15.08824684 50235,6917.927,95.439,540.638,538.947,0.0
52459.0,STARLINK-3856,PAYLOAD,2023-04-01 15:40:30,15.08832559,0.0001368,53.2164,196.1686,77.9755,282.1391,1.6091e-05,-3.2e-07,0.0,0 STARLINK-3856,1 52459U 22049J   23091.65313119 -.00000032  00000-0  16091-4 0  9993,2 52459  53.2164 196.1686 0001368  77.9755 282.1391 15.08832559 50415,6917.903,95.438,540.715,538.822,0.0
52459.0,STARLINK-3856,PAYLOAD,2023-04-02 13:55:53,15.08856004,0.0001139,53.2159,192.0052,83.7195,276.3927,0.00062775,9.721e-05,0.0,0 STARLINK-3856,1 52459U 22049J   23092.58048549  .00009721  00000-0  62775-3 0  9990,2 52459  53.2159 192.0052 0001139  83.7195 276.3927 15.08856004 50556,6917.831,95.437,540.484,538.909,0.0
52459.0,STARLINK-3856,PAYLOAD,2023-04-02 15:31:17,15.08860627,0.0001272,53.2156,191.7085,83.6077,276.506,0.00073498,0.00011435,0.0,0 STARLINK-3856,1 52459U 22049J   23092.64672535  .00011435  00000-0  73498-3 0  9994,2 52459  53.2156 191.7085 0001272  83.6077 276.5060 15.08860627 50401,6917.817,95.436,540.562,538.802,0.0
52459.0,STARLINK-3856,PAYLOAD,2023-04-03 12:11:18,15.08838576,0.0001989,53.2153,187.8399,153.409,206.7005,2.1781e-05,5.8e-07,0.0,0 STARLINK-3856,1 52459U 22049J   23093.50784879  .00000058  00000-0  21781-4 0  9993,2 52459  53.2153 187.8399 0001989 153.4090 206.7005 15.08838576 50691,6917.885,95.438,541.126,538.374,0.0
52459.0,STARLINK-3856,PAYLOAD,2023-04-03 15:22:04,15.08843946,0.0001291,53.2156,187.2482,93.5848,266.5291,0.00028757,4.292e-05,0.0,0 STARLINK-3856,1 52459U 22049J   23093.64033366  .00004292  00000-0  28757-3 0  9999,2 52459  53.2156 187.2482 0001291  93.5848 266.5291 15.08843946 50555,6917.868,95.437,540.626,538.84,0.0
52459.0,STARLINK-3856,PAYLOAD,2023-04-04 12:02:05,15.0885647,0.0001138,53.2156,183.3831,90.1184,269.9939,0.00079453,0.00012385,0.0,0 STARLINK-3856,1 52459U 22049J   23094.50145139  .00012385  00000-0  79453-3 0  9998,2 52459  53.2156 183.3831 0001138  90.1184 269.9939 15.08856470 50682,6917.83,95.437,540.482,538.908,0.0
52459.0,STARLINK-3856,PAYLOAD,2023-04-05 05:31:19,15.08847603,0.0001024,53.2157,180.1121,87.9495,272.1614,0.00036568,5.538e-05,0.0,0 STARLINK-3856,1 52459U 22049J   23095.23009215  .00005538  00000-0  36568-3 0  9995,2 52459  53.2157 180.1121 0001024  87.9495 272.1614 15.08847603 50957,6917.857,95.437,540.431,539.014,0.0
52459.0,STARLINK-3856,PAYLOAD,2023-04-05 11:52:52,15.0884084,0.0001389,53.2164,178.9229,72.7625,287.3519,0.00017378,2.479e-05,0.0,0 STARLINK-3856,1 52459U 22049J   23095.49505446  .00002479  00000-0  17378-3 0  9999,2 52459  53.2164 178.9229 0001389  72.7625 287.3519 15.08840840 50835,6917.878,95.438,540.704,538.782,0.0
52459.0,STARLINK-3856,PAYLOAD,2023-04-06 11:43:39,15.08843255,0.0001341,53.216,174.4618,89.7906,270.324,0.0001035,1.36e-05,0.0,0 STARLINK-3856,1 52459U 22049J   23096.48865431  .00001360  00000-0  10350-3 0  9993,2 52459  53.2160 174.4618 0001341  89.7906 270.3240 15.08843255 50984,6917.87,95.437,540.663,538.808,0.0
52459.0,STARLINK-3856,PAYLOAD,2023-04-06 14:54:25,15.08848299,0.0001398,53.2157,173.866,97.3667,262.7484,0.00014016,1.944e-05,0.0,0 STARLINK-3856,1 52459U 22049J   23096.62113148  .00001944  00000-0  14016-3 0  9991,2 52459  53.2157 173.8660 0001398  97.3667 262.7484 15.08848299 51160,6917.855,95.437,540.687,538.753,0.0
52459.0,STARLINK-3856,PAYLOAD,2023-04-07 11:34:26,15.08844862,0.000139,53.2157,170.0018,88.1195,271.9956,0.00018615,2.676e-05,0.0,0 STARLINK-3856,1 52459U 22049J   23097.48225369  .00002676  00000-0  18615-3 0  9997,2 52459  53.2157 170.0018 0001390  88.1195 271.9956 15.08844862 51294,6917.866,95.437,540.692,538.769,0.0
52459.0,STARLINK-3856,PAYLOAD,2023-04-08 05:03:41,15.08836701,0.0001483,53.2157,166.7286,98.4829,261.6332,0.00022733,3.332e-05,0.0,0 STARLINK-3856,1 52459U 22049J   23098.21089673  .00003332  00000-0  22733-3 0  9991,2 52459  53.2157 166.7286 0001483  98.4829 261.6332 15.08836701 51404,6917.89,95.438,540.781,538.73,0.0
52459.0,STARLINK-3856,PAYLOAD,2023-04-08 09:49:50,15.08840878,0.0001342,53.2153,165.8384,90.1172,269.9974,7.3393e-05,8.8e-06,0.0,0 STARLINK-3856,1 52459U 22049J   23098.40961404  .00000880  00000-0  73393-4 0  9997,2 52459  53.2153 165.8384 0001342  90.1172 269.9974 15.08840878 51271,6917.878,95.437,540.671,538.814,0.0
52459.0,STARLINK-3856,PAYLOAD,2023-04-09 09:40:37,15.0884341,0.0001267,53.2164,161.3775,95.76,264.3536,-1.73e-05,-5.63e-06,0.0,0 STARLINK-3856,1 52459U 22049J   23099.40321523 -.00000563  00000-0 -17300-4 0  9996,2 52459  53.2164 161.3775 0001267  95.7600 264.3536 15.08843410 51583,6917.87,95.437,540.611,538.858,0.0
52459.0,STARLINK-3856,PAYLOAD,2023-04-09 20:48:19,15.08840906,0.000125,53.2162,159.297,88.6461,271.4674,8.143e-05,1.008e-05,0.0,0 STARLINK-3856,1 52459U 22049J   23099.86689445  .00001008  00000-0  81430-4 0  9994,2 52459  53.2162 159.2970 0001250  88.6461 271.4674 15.08840906 51491,6917.878,95.437,540.607,538.878,0.0
